SILVERSAT               
1 66909U 98067XV  26043.78661499  .00129510  00000+0  13215-2 0  9996
2 66909  51.6260 191.6138 0002621 286.8301  73.2406 15.64148018 11282
ISS OBJECT XW           
1 66910U 98067XW  26043.80604892  .00102181  00000+0  11176-2 0  9994
2 66910  51.6251 191.7381 0001815 319.3740  40.7118 15.62492126 11287
ISS OBJECT XX           
1 66911U 98067XX  26043.62569575  .00155735  00000+0  14994-2 0  9997
2 66911  51.6233 192.0300 0003356 305.0177  55.0503 15.65511224 11259
ISS OBJECT XY           
1 66912U 98067XY  26043.81247153  .00077252  00000+0  95585-3 0  9997
2 66912  51.6277 192.5393 0000339 282.0268  78.0687 15.59404778 11265
ISS OBJECT XZ           
1 67683U 98067XZ  26044.24027314  .00037912  00000+0  67147-3 0  9998
2 67683  51.6301 193.1438 0010711 107.0390 253.1773 15.49842498   997
GXIBA-1                 
1 67684U 98067YA  26044.23752115  .00072147  00000+0  12312-2 0  9994
2 67684  51.6297 193.1269 0012525 101.3837 258.8560 15.50586782   991
CORAL                   
1 67685U 98067YB  26044.23970080  .00041573  00000+0  73102-3 0  9992
2 67685  51.6299 193.1399 0012683 102.9085 257.3321 15.49978416   991
ISS OBJECT YC           
1 67686U 98067YC  26044.23924055  .00049739  00000+0  86945-3 0  9995
2 67686  51.6304 193.1388 0007814  77.4740 282.7122 15.50119870   995
LEOPARD                 
1 67687U 98067YD  26044.23993521  .00038992  00000+0  68901-3 0  9991
2 67687  51.6305 193.1421 0007880  79.7885 280.3992 15.49922863   916
ISS OBJECT YE           
1 67688U 98067YE  26044.23939048  .00044290  00000+0  77722-3 0  9995
2 67688  51.6307 193.1391 0007767  78.6015 281.5846 15.50061669   913
